NORAD_CAT_ID,OBJECT_NAME,OBJECT_TYPE,EPOCH,MEAN_MOTION,ECCENTRICITY,INCLINATION,RA_OF_ASC_NODE,ARG_OF_PERICENTER,MEAN_ANOMALY,BSTAR,MEAN_MOTION_DOT,MEAN_MOTION_DDOT,TLE_LINE0,TLE_LINE1,TLE_LINE2,SEMIMAJOR_AXIS,PERIOD,APOGEE,PERIGEE,DECAYED
54076.0,STARLINK-5201,PAYLOAD,2022-12-10 08:00:01,15.08859444,0.0001925,53.2138,264.964,34.6896,245.3077,-0.0014436,-0.00023202,0.0,0 STARLINK-5201,1 54076U 22136AB  22344.33335648 -.00023202  00000-0 -14436-2 0  9997,2 54076  53.2138 264.9640 0001925  34.6896 245.3077 15.08859444  8385,6917.821,95.436,541.018,538.354,0.0
54076.0,STARLINK-5201,PAYLOAD,2022-12-10 14:00:01,15.08782944,0.0001824,53.2152,263.8397,36.4668,162.1939,0.0090926,0.00147231,0.0,0 STARLINK-5201,1 54076U 22136AB  22344.58334491  .00147231  00000-0  90926-2 0  9994,2 54076  53.2152 263.8397 0001824  36.4668 162.1939 15.08782944  1301,6918.055,95.441,541.182,538.658,0.0
54076.0,STARLINK-5201,PAYLOAD,2022-12-11 00:00:00,15.08868258,0.0001905,53.213,261.9714,41.368,261.7876,-0.0017385,-0.00027872,0.0,0 STARLINK-5201,1 54076U 22136AB  22345.00001157 -.00027872  00000-0 -17385-2 0  9990,2 54076  53.2130 261.9714 0001905  41.3680 261.7876 15.08868258  8483,6917.794,95.436,540.977,538.341,0.0
54076.0,STARLINK-5201,PAYLOAD,2022-12-11 14:00:01,15.08799158,0.0001826,53.2143,259.3511,43.8687,189.6048,0.0024127,0.00038276,0.0,0 STARLINK-5201,1 54076U 22136AB  22345.58334491  .00038276  00000-0  24127-2 0  9993,2 54076  53.2143 259.3511 0001826  43.8687 189.6048 15.08799158  1304,6918.005,95.44,541.133,538.607,0.0
54076.0,STARLINK-5201,PAYLOAD,2022-12-11 22:00:01,15.08850967,0.0001904,53.2149,257.8558,45.8499,199.2687,-0.00045521,-7.528e-05,0.0,0 STARLINK-5201,1 54076U 22136AB  22345.91668981 -.00007528  00000-0 -45521-3 0  9994,2 54076  53.2149 257.8558 0001904  45.8499 199.2687 15.08850967  8628,6917.847,95.437,541.029,538.395,0.0
54076.0,STARLINK-5201,PAYLOAD,2022-12-12 14:00:01,15.08822996,0.0001835,53.2143,254.8619,46.0351,222.2236,0.0012689,0.00019955,0.0,0 STARLINK-5201,1 54076U 22136AB  22346.58334491  .00019955  00000-0  12689-2 0  9997,2 54076  53.2143 254.8619 0001835  46.0351 222.2236 15.08822996  1306,6917.932,95.439,541.067,538.528,0.0
54076.0,STARLINK-5201,PAYLOAD,2022-12-12 20:00:01,15.0884844,0.0001943,53.2138,253.7404,48.7139,138.2332,-0.0015194,-0.00024394,0.0,0 STARLINK-5201,1 54076U 22136AB  22346.83334491 -.00024394  00000-0 -15194-2 0  9994,2 54076  53.2138 253.7404 0001943  48.7139 138.2332 15.08848440  1308,6917.855,95.437,541.064,538.375,0.0
54076.0,STARLINK-5201,PAYLOAD,2022-12-13 01:32:04,15.08829007,0.0001786,53.2147,252.7025,50.5495,309.5655,-9.9319e-05,-1.868e-05,0.0,0 STARLINK-5201,1 54076U 22136AB  22347.06394280 -.00001868  00000-0 -99319-4 0  9996,2 54076  53.2147 252.7025 0001786  50.5495 309.5655 15.08829007  8796,6917.9140000000025,95.438,541.015,538.543,0.0
54076.0,STARLINK-5201,PAYLOAD,2022-12-13 17:25:55,15.08831553,0.0002022,53.2157,249.7296,46.1546,313.9613,2.5462e-05,1.17e-06,0.0,0 STARLINK-5201,1 54076U 22136AB  22347.72634136  .00000117  00000-0  25462-4 0  9998,2 54076  53.2157 249.7296 0002022  46.1546 313.9613 15.08831553  8898,6917.906,95.438,541.17,538.372,0.0
54076.0,STARLINK-5201,PAYLOAD,2022-12-13 20:36:42,15.08831087,0.0002009,53.2158,249.135,47.4729,312.6433,2.3246e-05,8.2e-07,0.0,0 STARLINK-5201,1 54076U 22136AB  22347.85882266  .00000082  00000-0  23246-4 0  9990,2 54076  53.2158 249.1350 0002009  47.4729 312.6433 15.08831087  8434,6917.908,95.438,541.1619999999998,538.383,0.0
54076.0,STARLINK-5201,PAYLOAD,2022-12-14 01:22:50,15.08844248,0.0002117,53.2159,248.2439,47.12300000000001,312.994,0.00014078,1.953e-05,0.0,0 STARLINK-5201,1 54076U 22136AB  22348.05753091  .00001953  00000-0  14078-3 0  9996,2 54076  53.2159 248.2439 0002117  47.1230 312.9940 15.08844248  8942,6917.8669999999975,95.437,541.197,538.268,0.0
54076.0,STARLINK-5201,PAYLOAD,2022-12-14 09:19:45,15.08850035,0.0002148,53.2158,246.7574,47.1283,312.9889,0.00016134,2.281e-05,0.0,0 STARLINK-5201,1 54076U 22136AB  22348.38872622  .00002281  00000-0  16134-3 0  9994,2 54076  53.2158 246.7574 0002148  47.1283 312.9889 15.08850035  8512,6917.85,95.437,541.201,538.229,0.0
54076.0,STARLINK-5201,PAYLOAD,2022-12-15 02:49:00,15.08837287,0.0002146,53.2162,243.4854,48.5568,311.5609,0.00024071,3.545e-05,0.0,0 STARLINK-5201,1 54076U 22136AB  22349.11736883  .00003545  00000-0  24071-3 0  9997,2 54076  53.2162 243.4854 0002146  48.5568 311.5609 15.08837287  9106,6917.889,95.438,541.238,538.269,0.0
54076.0,STARLINK-5201,PAYLOAD,2022-12-15 12:21:18,15.08851473,0.0001944,53.2155,241.7024,49.79,310.3262,0.00021417,3.123e-05,0.0,0 STARLINK-5201,1 54076U 22136AB  22349.51479886  .00003123  00000-0  21417-3 0  9991,2 54076  53.2155 241.7024 0001944  49.7900 310.3262 15.08851473  9167,6917.845,95.437,541.055,538.365,0.0
54076.0,STARLINK-5201,PAYLOAD,2022-12-15 20:18:14,15.08847228,0.0001948,53.2155,240.2155,48.5743,311.5416,6.4494e-05,7.39e-06,0.0,0 STARLINK-5201,1 54076U 22136AB  22349.84600411  .00000739  00000-0  64494-4 0  9990,2 54076  53.2155 240.2155 0001948  48.5743 311.5416 15.08847228  8731,6917.858,95.437,541.071,538.376,0.0
54076.0,STARLINK-5201,PAYLOAD,2022-12-15 23:29:01,15.08845498,0.0002035,53.2153,239.621,46.4651,313.651,5.5596e-05,5.97e-06,0.0,0 STARLINK-5201,1 54076U 22136AB  22349.97848507  .00000597  00000-0  55596-4 0  9999,2 54076  53.2153 239.6210 0002035  46.4651 313.6510 15.08845498  9237,6917.864000000001,95.437,541.136,538.321,0.0
54076.0,STARLINK-5201,PAYLOAD,2022-12-16 02:39:47,15.08842586,0.000196,53.2162,239.0253,49.5759,310.5404,-4.6557e-05,-1.029e-05,0.0,0 STARLINK-5201,1 54076U 22136AB  22350.11096894 -.00001029  00000-0 -46557-4 0  9991,2 54076  53.2162 239.0253 0001960  49.5759 310.5404 15.08842586  8778,6917.871999999999,95.437,541.0930000000002,538.382,0.0
54076.0,STARLINK-5201,PAYLOAD,2022-12-16 20:09:01,15.08843359,0.0002062,53.2166,235.7552,43.1922,316.9232,-5.298e-06,-3.73e-06,0.0,0 STARLINK-5201,1 54076U 22136AB  22350.83960411 -.00000373  00000-0 -52980-5 0  9994,2 54076  53.2166 235.7552 0002062  43.1922 316.9232 15.08843359  8883,6917.87,95.437,541.1619999999998,538.309,0.0
54076.0,STARLINK-5201,PAYLOAD,2022-12-17 02:30:35,15.08832095,0.0001933,53.2154,234.5652,47.7986,312.317,-0.00010059,-1.888e-05,0.0,0 STARLINK-5201,1 54076U 22136AB  22351.10457358 -.00001888  00000-0 -10059-3 0  9997,2 54076  53.2154 234.5652 0001933  47.7986 312.3170 15.08832095  9409,6917.905,95.438,541.107,538.432,0.0
54076.0,STARLINK-5201,PAYLOAD,2022-12-17 08:52:07,15.08831576,0.0001946,53.2153,233.3758,47.1768,312.9387,-0.0001273,-2.313e-05,0.0,0 STARLINK-5201,1 54076U 22136AB  22351.36953546 -.00002313  00000-0 -12730-3 0  9997,2 54076  53.2153 233.3758 0001946  47.1768 312.9387 15.08831576  8967,6917.906,95.438,541.117,538.425,0.0
54076.0,STARLINK-5201,PAYLOAD,2022-12-17 19:59:49,15.0883445,0.000189,53.215,231.2939,47.6037,312.5115,-4.7067e-06,-3.63e-06,0.0,0 STARLINK-5201,1 54076U 22136AB  22351.83321092 -.00000363  00000-0 -47067-5 0  9990,2 54076  53.2150 231.2939 0001890  47.6037 312.5115 15.08834450  9032,6917.897,95.438,541.07,538.455,0.0
54076.0,STARLINK-5201,PAYLOAD,2022-12-17 23:10:35,15.08835403,0.000189,53.215,230.6991,47.3311,312.784,-2.7376e-06,-3.32e-06,0.0,0 STARLINK-5201,1 54076U 22136AB  22351.96569047 -.00000332  00000-0 -27376-5 0  9995,2 54076  53.2150 230.6991 0001890  47.3311 312.7840 15.08835403  9536,6917.894,95.438,541.067,538.452,0.0
54076.0,STARLINK-5201,PAYLOAD,2022-12-18 19:50:37,15.0882285,0.0001964,53.2149,226.8332,46.2765,313.8389,2.48e-05,1.06e-06,0.0,0 STARLINK-5201,1 54076U 22136AB  22352.82682379  .00000106  00000-0  24800-4 0  9990,2 54076  53.2149 226.8332 0001964  46.2765 313.8389 15.08822850  9186,6917.933000000001,95.439,541.156,538.439,0.0
54076.0,STARLINK-5201,PAYLOAD,2022-12-19 00:36:46,15.0883186,0.0002016,53.2148,225.9412,48.7022,311.4144,6.5997e-05,7.62e-06,0.0,0 STARLINK-5201,1 54076U 22136AB  22353.02553886  .00000762  00000-0  65997-4 0  9993,2 54076  53.2148 225.9412 0002016  48.7022 311.4144 15.08831860  9696,6917.905,95.438,541.165,538.376,0.0
54076.0,STARLINK-5201,PAYLOAD,2022-12-19 08:33:41,15.08835198,0.0001994,53.2147,224.4544,47.6612,312.4549,0.00019515,2.819e-05,0.0,0 STARLINK-5201,1 54076U 22136AB  22353.35673565  .00002819  00000-0  19515-3 0  9995,2 54076  53.2147 224.4544 0001994  47.6612 312.4549 15.08835198  9263,6917.895,95.438,541.139,538.381,0.0
54076.0,STARLINK-5201,PAYLOAD,2022-12-20 00:27:32,15.08850618,0.000198,53.2146,221.4803,51.5154,308.6015,0.00018569,2.669e-05,0.0,0 STARLINK-5201,1 54076U 22136AB  22354.01912617  .00002669  00000-0  18569-3 0  9994,2 54076  53.2146 221.4803 0001980  51.5154 308.6015 15.08850618  9840,6917.848000000001,95.437,541.0830000000002,538.3430000000002,0.0
54076.0,STARLINK-5201,PAYLOAD,2022-12-20 08:24:28,15.08842291,0.0001913,53.2144,219.9935,48.7087,311.4069,0.000212,3.088e-05,0.0,0 STARLINK-5201,1 54076U 22136AB  22354.35033188  .00003088  00000-0  21200-3 0  9990,2 54076  53.2144 219.9935 0001913  48.7087 311.4069 15.08842291  9899,6917.873000000001,95.437,541.062,538.415,0.0
54076.0,STARLINK-5201,PAYLOAD,2022-12-21 08:15:16,15.08830991,0.0001873,53.2135,215.5324,48.1629,311.9523,-0.00016432,-2.902e-05,0.0,0 STARLINK-5201,1 54076U 22136AB  22355.34393798 -.00002902  00000-0 -16432-3 0  9993,2 54076  53.2135 215.5324 0001873  48.1629 311.9523 15.08830991  9562,6917.908,95.438,541.069,538.477,0.0
54076.0,STARLINK-5201,PAYLOAD,2022-12-22 01:44:30,15.08843533,0.0002658,53.2167,212.2624,43.1127,317.0073,1.8244e-06,-2.59e-06,0.0,0 STARLINK-5201,1 54076U 22136AB  22356.07257786 -.00000259  00000-0  18244-5 0  9997,2 54076  53.2167 212.2624 0002658  43.1127 317.0073 15.08843533 10154,6917.87,95.437,541.573,537.896,0.0
